GOES 9                  
1 23581U 95025A   08237.27382345 -.00000174  00000-0  10000-3 0  7203
2 23581   4.5573  74.2907 0002018 336.7991  23.3836  0.98802944 48497
SARSAT 7 (NOAA 15)      
1 25338U 98030A   08237.33950001  .00000010  00000-0  22871-4 0  5960
2 25338  98.5601 227.4811 0010123 197.6683 162.4129 14.24721503534505
GOES 11                 
1 26352U 00022A   08237.11607315  .00000084  00000-0  10000-3 0  9453
2 26352   0.3156 262.6926 0005156 305.1570  31.6092  1.00262857 30427
COSPAS 9 (NADEZHDA 6)   
1 26384U 00033A   08237.12509453  .00000064  00000-0  21766-4 0  4045
2 26384  98.4220 255.5321 0016993  63.6964 296.5981 14.64066793435485
SARSAT 8 (NOAA 16)      
1 26536U 00055A   08237.28064090 -.00000305  00000-0 -14008-3 0   707
2 26536  99.1628 227.9658 0011232  38.5084 321.6891 14.12492876408382
GOES 12                 
1 26871U 01031A   08235.50000000 -.00000246  00000-0  10000-3 0  6918
2 26871   0.1720  95.3500 0000654 247.3160  92.9200  1.00265035 26019
SARSAT 9 (NOAA 17)      
1 27453U 02032A   08237.42036616  .00000227  00000-0  11757-3 0   644
2 27453  98.5283 300.0536 0010648 269.0365  90.9607 14.23997924320517
INSAT 3A                
1 27714U 03013A   08234.70480212 -.00000255  00000-0  10000-3 0  2269
2 27714   0.0811 263.3990 0002704 266.8180 147.3351  1.00267479 19694
SARSAT 10 (NOAA 18)     
1 28654U 05018A   08237.47345222  .00000151  00000-0  10808-3 0  5520
2 28654  98.8694 177.5717 0015197 118.7685 241.5026 14.11186471168105
MSG-2                   
1 28912U 05049B   08238.08354497 -.00000009  00000-0  10000-3 0  4035
2 28912   0.3842 218.9055 0000777 294.6683 210.5054  1.00280144  9882
SARSAT 11 (METOP-A)     
1 29499U 06044A   08237.77529342  .00000063  00000-0  48704-4 0  5808
2 29499  98.7163 296.0208 0001009  95.1856 264.9425 14.21484440 95907
